[{"OBJECT_NAME":"STARLINK-6214","OBJECT_ID":"2023-064AJ","EPOCH":"2026-03-09T19:04:55.016544","MEAN_MOTION":15.2175363,"ECCENTRICITY":0.00030859,"INCLINATION":69.9921,"RA_OF_ASC_NODE":92.3376,"ARG_OF_PERICENTER":258.5553,"MEAN_ANOMALY":101.5271,"EPHEMERIS_TYPE":0,"CLASSIFICATION_TYPE":"U","NORAD_CAT_ID":56480,"ELEMENT_SET_NO":999,"REV_AT_EPOCH":15655,"BSTAR":0.00032568833,"MEAN_MOTION_DOT":7.292e-5,"MEAN_MOTION_DDOT":0},{"OBJECT_NAME":"PREFIRE-1","OBJECT_ID":"2024-108A","EPOCH":"2026-03-09T22:24:03.177504","MEAN_MOTION":15.22571626,"ECCENTRICITY":0.00108716,"INCLINATION":97.5188,"RA_OF_ASC_NODE":223.5154,"ARG_OF_PERICENTER":223.1698,"MEAN_ANOMALY":136.8686,"EPHEMERIS_TYPE":0,"CLASSIFICATION_TYPE":"U","NORAD_CAT_ID":59965,"ELEMENT_SET_NO":999,"REV_AT_EPOCH":9748,"BSTAR":0.00029745769,"MEAN_MOTION_DOT":6.846e-5,"MEAN_MOTION_DDOT":0}]
